{
"type": "FeatureCollection",
"name": "mullaperiyar_settlements",
"crs": { "type": "name", "properties": { "name": "urn:ogc:def:crs:OGC:1.3:CRS84" } },
"features": [
{ "type": "Feature", "properties": { "name": "Downstream Town Alpha", "impact_hour": 1, "population": "15,200" }, "geometry": { "type": "Point", "coordinates": [ 77.1891, 9.5242 ] } },
{ "type": "Feature", "properties": { "name": "Valley Settlement Beta", "impact_hour": 2, "population": "42,000" }, "geometry": { "type": "Point", "coordinates": [ 77.2591, 9.5292 ] } },
{ "type": "Feature", "properties": { "name": "Delta City Gamma", "impact_hour": 3, "population": "35,500" }, "geometry": { "type": "Point", "coordinates": [ 77.3791, 9.5492 ] } }
]
}
