{
"type": "FeatureCollection",
"name": "nagarjuna_settlements",
"crs": { "type": "name", "properties": { "name": "urn:ogc:def:crs:OGC:1.3:CRS84" } },
"features": [
{ "type": "Feature", "properties": { "name": "Downstream Town Alpha", "impact_hour": 1, "population": "15,200" }, "geometry": { "type": "Point", "coordinates": [ 79.3334, 16.5746 ] } },
{ "type": "Feature", "properties": { "name": "Valley Settlement Beta", "impact_hour": 2, "population": "42,000" }, "geometry": { "type": "Point", "coordinates": [ 79.4034, 16.5796 ] } },
{ "type": "Feature", "properties": { "name": "Delta City Gamma", "impact_hour": 3, "population": "35,500" }, "geometry": { "type": "Point", "coordinates": [ 79.5234, 16.5996 ] } }
]
}
